IRIDIUM 106             
1 41917U 17003A   25055.59973952  .00000030  00000+0  38157-5 0  9990
2 41917  86.3941 288.0975 0002311  75.1216 285.0236 14.34212824424752
IRIDIUM 103             
1 41918U 17003B   25055.58707040  .00000292  00000+0  97083-4 0  9995
2 41918  86.3938 288.0038 0002679  93.1322 267.0180 14.34207261424773
IRIDIUM 109             
1 41919U 17003C   25055.59340542  .00000062  00000+0  14994-4 0  9992
2 41919  86.3940 288.0526 0002053  93.5588 266.5842 14.34217881424748
IRIDIUM 102             
1 41920U 17003D   25055.63146117  .00000187  00000+0  59699-4 0  9990
2 41920  86.3938 287.9704 0001979  85.1409 275.0012 14.34217989424831
IRIDIUM 105             
1 41921U 17003E   25055.60219572  .00000045  00000+0  89600-5 0  9993
2 41921  86.3918 256.3928 0002154  88.5522 271.5921 14.34217435426688
IRIDIUM 104             
1 41922U 17003F   25055.64414509  .00000104  00000+0  29914-4 0  9992
2 41922  86.3939 288.0003 0002143 100.2536 259.8902 14.34218333424823
IRIDIUM 114             
1 41923U 17003G   25055.65048946  .00000092  00000+0  25843-4 0  9995
2 41923  86.3939 287.9826 0002295  89.2149 270.9310 14.34217887424829
IRIDIUM 108             
1 41924U 17003H   25055.60900752  .00000131  00000+0  39845-4 0  9994
2 41924  86.3915 256.2985 0002111  81.8582 278.2853 14.34218770426675
